NORAD_CAT_ID,OBJECT_NAME,OBJECT_TYPE,EPOCH,MEAN_MOTION,ECCENTRICITY,INCLINATION,RA_OF_ASC_NODE,ARG_OF_PERICENTER,MEAN_ANOMALY,BSTAR,MEAN_MOTION_DOT,MEAN_MOTION_DDOT,TLE_LINE0,TLE_LINE1,TLE_LINE2,SEMIMAJOR_AXIS,PERIOD,APOGEE,PERIGEE,DECAYED
52669.0,STARLINK-3972,PAYLOAD,2023-09-17 11:16:55,15.08851184,0.0001612,53.2159,253.3205,89.9495,270.1681,0.000194,2.802e-05,0.0,0 STARLINK-3972,1 52669U 22053P   23260.47008618  .00002802  00000-0  19400-3 0  9996,2 52669  53.2159 253.3205 0001612  89.9495 270.1681 15.08851184 74534,6917.846,95.437,540.826,538.596,0.0
52669.0,STARLINK-3972,PAYLOAD,2023-09-18 00:00:00,15.08841527,0.0001676,53.2161,250.94,96.0957,264.0226,4.7548e-05,4.69e-06,0.0,0 STARLINK-3972,1 52669U 22053P   23261.00000933  .00000469  00000-0  47548-4 0  9990,2 52669  53.2161 250.9400 0001676  96.0957 264.0226 15.08841527 74615,6917.876,95.437,540.9,538.581,0.0
52669.0,STARLINK-3972,PAYLOAD,2023-09-18 11:07:42,15.08848459,0.0001515,53.2153,248.8613,93.3871,266.7294,0.00020691,3.007e-05,0.0,0 STARLINK-3972,1 52669U 22053P   23261.46368595  .00003007  00000-0  20691-3 0  9991,2 52669  53.2153 248.8613 0001515  93.3871 266.7294 15.08848459 74687,6917.855,95.437,540.768,538.671,0.0
52669.0,STARLINK-3972,PAYLOAD,2023-09-18 15:53:51,15.08845139,0.0001412,53.215,247.968,93.9187,266.1966,5.5279e-05,5.92e-06,0.0,0 STARLINK-3972,1 52669U 22053P   23261.66240581  .00000592  00000-0  55279-4 0  9994,2 52669  53.2150 247.9680 0001412  93.9187 266.1966 15.08845139 74716,6917.865,95.437,540.706,538.753,0.0
52669.0,STARLINK-3972,PAYLOAD,2023-09-19 03:01:34,15.08841293,0.00016,53.2161,245.885,98.7869,261.3305,0.00010627,1.404e-05,0.0,0 STARLINK-3972,1 52669U 22053P   23262.12608901  .00001404  00000-0  10627-3 0  9990,2 52669  53.2161 245.8850 0001600  98.7869 261.3305 15.08841293 74781,6917.876,95.437,540.848,538.635,0.0
52669.0,STARLINK-3972,PAYLOAD,2023-09-19 09:23:06,15.08853386,0.0001612,53.2163,244.6962,95.0947,265.0229,0.00026577,3.946e-05,0.0,0 STARLINK-3972,1 52669U 22053P   23262.39104251  .00003946  00000-0  26577-3 0  9992,2 52669  53.2163 244.6962 0001612  95.0947 265.0229 15.08853386 74821,6917.839,95.437,540.82,538.589,0.0
52669.0,STARLINK-3972,PAYLOAD,2023-09-19 15:44:39,15.08834793,0.0001559,53.2157,243.5046,101.4172,258.6996,-3.5412e-05,-8.51e-06,0.0,0 STARLINK-3972,1 52669U 22053P   23262.65600971 -.00000851  00000-0 -35412-4 0  9994,2 52669  53.2157 243.5046 0001559 101.4172 258.6996 15.08834793 74861,6917.896,95.438,540.84,538.683,0.0
52669.0,STARLINK-3972,PAYLOAD,2023-09-20 10:49:16,15.08845399,0.0001501,53.2151,239.9395,98.4154,261.7008,0.00024729,3.65e-05,0.0,0 STARLINK-3972,1 52669U 22053P   23263.45088855  .00003650  00000-0  24729-3 0  9990,2 52669  53.2151 239.9395 0001501  98.4154 261.7008 15.08845399 74989,6917.864,95.437,540.767,538.691,0.0
52669.0,STARLINK-3972,PAYLOAD,2023-09-20 15:35:26,15.08829919,0.0002154,53.2151,239.0467,94.3862,265.7376,-4.4639e-05,-9.98e-06,0.0,0 STARLINK-3972,1 52669U 22053P   23263.64961621 -.00000998  00000-0 -44639-4 0  9999,2 52669  53.2151 239.0467 0002154  94.3862 265.7376 15.08829919 75013,6917.911,95.438,541.266,538.286,0.0
52669.0,STARLINK-3972,PAYLOAD,2023-09-21 02:43:08,15.0882972,0.0001405,53.2152,236.9669,102.8482,257.2667,9.7804e-05,1.269e-05,0.0,0 STARLINK-3972,1 52669U 22053P   23264.11329766  .00001269  00000-0  97804-4 0  9992,2 52669  53.2152 236.9669 0001405 102.8482 257.2667 15.08829720 75081,6917.912,95.438,540.749,538.805,0.0
52669.0,STARLINK-3972,PAYLOAD,2023-09-21 10:40:04,15.08835362,0.0001541,53.216,235.4782,98.8519,261.2648,0.00046671,7.147e-05,0.0,0 STARLINK-3972,1 52669U 22053P   23264.44449937  .00007147  00000-0  46671-3 0  9997,2 52669  53.2160 235.4782 0001541  98.8519 261.2648 15.08835362 75135,6917.895,95.438,540.826,538.694,0.0
52669.0,STARLINK-3972,PAYLOAD,2023-09-21 15:26:14,15.08833668,0.0001657,53.2165,234.5858,95.6173,264.5008,0.00045264,6.922e-05,0.0,0 STARLINK-3972,1 52669U 22053P   23264.64322169  .00006922  00000-0  45264-3 0  9993,2 52669  53.2165 234.5858 0001657  95.6173 264.5008 15.08833668 75169,6917.9,95.438,540.911,538.618,0.0
52669.0,STARLINK-3972,PAYLOAD,2023-09-22 07:20:05,15.08854774,0.0001416,53.2145,231.6132,97.1781,262.9372,0.00085034,0.00013277,0.0,0 STARLINK-3972,1 52669U 22053P   23265.30561778  .00013277  00000-0  85034-3 0  9998,2 52669  53.2145 231.6132 0001416  97.1781 262.9372 15.08854774 75263,6917.835,95.437,540.68,538.721,0.0
52669.0,STARLINK-3972,PAYLOAD,2023-09-22 15:17:01,15.0884662,0.0001441,53.2153,230.1267,89.0301,271.0857,0.00051143,7.862e-05,0.0,0 STARLINK-3972,1 52669U 22053P   23265.63681909  .00007862  00000-0  51143-3 0  9990,2 52669  53.2153 230.1267 0001441  89.0301 271.0857 15.08846620 75317,6917.86,95.437,540.722,538.728,0.0
52669.0,STARLINK-3972,PAYLOAD,2023-09-23 07:10:52,15.08856405,0.0001462,53.2145,227.1519,94.9066,265.2093,0.00066324,0.00010288,0.0,0 STARLINK-3972,1 52669U 22053P   23266.29921510  .00010288  00000-0  66324-3 0  9991,2 52669  53.2145 227.1519 0001462  94.9066 265.2093 15.08856405 75410,6917.83,95.437,540.707,538.684,0.0
52669.0,STARLINK-3972,PAYLOAD,2023-09-23 15:07:47,15.08853469,0.0001244,53.2153,225.667,87.6409,272.4726,0.00044478,6.8e-05,0.0,0 STARLINK-3972,1 52669U 22053P   23266.63041467  .00006800  00000-0  44478-3 0  9994,2 52669  53.2153 225.6670 0001244  87.6409 272.4726 15.08853469 75463,6917.839,95.437,540.565,538.844,0.0
52669.0,STARLINK-3972,PAYLOAD,2023-09-24 02:15:29,15.08851169,0.0001517,53.216,223.5841,106.966,253.1499,0.00033863,5.107e-05,0.0,0 STARLINK-3972,1 52669U 22053P   23267.09409415  .00005107  00000-0  33863-3 0  9991,2 52669  53.2160 223.5841 0001517 106.9660 253.1499 15.08851169 75531,6917.846,95.437,540.761,538.662,0.0
52669.0,STARLINK-3972,PAYLOAD,2023-09-24 07:01:38,15.08857455,0.0001432,53.2162,222.6929,101.6884,258.4269,0.0005624,8.678e-05,0.0,0 STARLINK-3972,1 52669U 22053P   23267.29281186  .00008678  00000-0  56240-3 0  9996,2 52669  53.2162 222.6929 0001432 101.6884 258.4269 15.08857455 75566,6917.827,95.436,540.683,538.701,0.0
52669.0,STARLINK-3972,PAYLOAD,2023-09-25 02:06:16,15.08848303,0.0001251,53.215,219.1237,104.7589,255.3542,0.00070982,0.00011029,0.0,0 STARLINK-3972,1 52669U 22053P   23268.08769600  .00011029  00000-0  70982-3 0  9999,2 52669  53.2150 219.1237 0001251 104.7589 255.3542 15.08848303 75686,6917.855,95.437,540.585,538.855,0.0
52669.0,STARLINK-3972,PAYLOAD,2023-09-25 06:52:26,15.08872778,0.0001197,53.2149,218.2318,89.7282,270.3847,0.0017608,0.00027871,0.0,0 STARLINK-3972,1 52669U 22053P   23268.28641354  .00027871  00000-0  17608-2 0  9993,2 52669  53.2149 218.2318 0001197  89.7282 270.3847 15.08872778 75717,6917.78,95.435,540.473,538.817,0.0
52669.0,STARLINK-3972,PAYLOAD,2023-09-25 13:13:58,15.08855447,0.000127,53.2145,217.0417,85.6597,274.454,0.00091472,0.00014306,0.0,0 STARLINK-3972,1 52669U 22053P   23268.55137440  .00014306  00000-0  91472-3 0  9990,2 52669  53.2145 217.0417 0001270  85.6597 274.4540 15.08855447 75759,6917.833,95.437,540.577,538.82,0.0
52669.0,STARLINK-3972,PAYLOAD,2023-09-25 21:10:54,15.08859941,0.0001309,53.2145,215.5551,87.9873,272.1269,0.00074238,0.00011553,0.0,0 STARLINK-3972,1 52669U 22053P   23268.88257086  .00011553  00000-0  74238-3 0  9997,2 52669  53.2145 215.5551 0001309  87.9873 272.1269 15.08859941 75808,6917.819,95.436,540.59,538.779,0.0
52669.0,STARLINK-3972,PAYLOAD,2023-09-26 03:32:26,15.08876339,0.0001368,53.2158,214.3669,107.5427,252.5714,0.0016913,0.00026758,0.0,0 STARLINK-3972,1 52669U 22053P   23269.14752414  .00026758  00000-0  16913-2 0  9990,2 52669  53.2158 214.3669 0001368 107.5427 252.5714 15.08876339 75849,6917.769,95.435,540.581,538.688,0.0
52669.0,STARLINK-3972,PAYLOAD,2023-09-27 01:47:50,15.08839808,0.0001299,53.2147,210.2015,89.3762,270.7379,4.0405e-05,3.55e-06,0.0,0 STARLINK-3972,1 52669U 22053P   23270.07488877  .00000355  00000-0  40405-4 0  9993,2 52669  53.2147 210.2015 0001299  89.3762 270.7379 15.08839808 75983,6917.881,95.438,540.645,538.847,0.0
52669.0,STARLINK-3972,PAYLOAD,2023-09-27 04:58:36,15.08837428,0.0001304,53.2142,209.6072,82.9906,277.1234,-7.88e-05,-1.542e-05,0.0,0 STARLINK-3972,1 52669U 22053P   23270.20737011 -.00001542  00000-0 -78800-4 0  9996,2 52669  53.2142 209.6072 0001304  82.9906 277.1234 15.08837428 76000,6917.888,95.438,540.655,538.851,0.0
52669.0,STARLINK-3972,PAYLOAD,2023-09-27 12:55:33,15.08821298,0.0001633,53.2142,208.1204,90.3861,269.7319,-0.0003581,-5.98e-05,0.0,0 STARLINK-3972,1 52669U 22053P   23270.53857746 -.00005980  00000-0 -35810-3 0  9993,2 52669  53.2142 208.1204 0001633  90.3861 269.7319 15.08821298 76053,6917.938,95.439,540.932,538.673,0.0
52669.0,STARLINK-3972,PAYLOAD,2023-09-28 04:49:25,15.08821207,0.0001719,53.2159,205.1473,94.339,265.7799,4.9609e-05,5.01e-06,0.0,0 STARLINK-3972,1 52669U 22053P   23271.20098897  .00000501  00000-0  49609-4 0  9996,2 52669  53.2159 205.1473 0001719  94.3390 265.7799 15.08821207 76151,6917.938,95.439,540.992,538.614,0.0
52669.0,STARLINK-3972,PAYLOAD,2023-09-28 23:54:03,15.08844494,0.000171,53.2169,201.5784,91.878,268.2408,0.00063632,9.855e-05,0.0,0 STARLINK-3972,1 52669U 22053P   23271.99586952  .00009855  00000-0  63632-3 0  9998,2 52669  53.2169 201.5784 0001710  91.8780 268.2408 15.08844494 76274,6917.867,95.437,540.915,538.549,0.0
52669.0,STARLINK-3972,PAYLOAD,2023-09-29 04:40:12,15.08855538,0.0001632,53.2163,200.6864,92.186,267.9319,0.00089431,0.0001398,0.0,0 STARLINK-3972,1 52669U 22053P   23272.19458724  .00013980  00000-0  89431-3 0  9995,2 52669  53.2163 200.6864 0001632  92.1860 267.9319 15.08855538 76305,6917.833,95.437,540.827,538.569,0.0
52669.0,STARLINK-3972,PAYLOAD,2023-09-30 01:20:12,15.08864137,0.0002019,53.2158,196.8188,119.9585,240.1608,0.00063803,9.887e-05,0.0,0 STARLINK-3972,1 52669U 22053P   23273.05569759  .00009887  00000-0  63803-3 0  9998,2 52669  53.2158 196.8188 0002019 119.9585 240.1608 15.08864137 76439,6917.807,95.436,541.068,538.275,0.0
